H360_L_00002001-01
1 58429U 25568NQ  26070.40770833  .00000000  00000+0  00000-0 0  9990
2 58429  40.5000   0.0000 0000000   0.0000   0.0000 15.05490646    10
